STARLINK-34747          
1 64947U 25158R   26005.20884045 -.00000231  00000+0 -11767-4 0  9998
2 64947  97.6010 231.5146 0003392  88.4276 271.7340 15.05658851 25802
STARLINK-34630          
1 64948U 25158S   26005.17839814  .00011248  00000+0  78237-3 0  9991
2 64948  97.6013 231.5543 0001684  74.8960 285.2453 15.05655340 25803
STARLINK-34689          
1 64949U 25158T   26005.16454305  .00007167  00000+0  50038-3 0  9993
2 64949  97.6021 231.4182 0001859  81.8252 278.3185 15.05651765 25797
STARLINK-34586          
1 64950U 25158U   26005.15347990  .00003007  00000+0  21262-3 0  9991
2 64950  97.6028 231.4349 0002153  99.6917 260.4553 15.05632771 25791
STARLINK-34738          
1 64951U 25158V   26005.18668883  .00017403  00000+0  12061-2 0  9993
2 64951  97.6013 231.5449 0002135  81.9977 278.1492 15.05686974 25802
STARLINK-34744          
1 64952U 25158W   26005.17007858  .00007948  00000+0  55434-3 0  9997
2 64952  97.6013 231.4044 0001927  81.8281 278.3164 15.05654001 25790
STARLINK-34701          
1 64953U 25158X   26005.31408357  .00003696  00000+0  26019-3 0  9996
2 64953  97.6013 231.6817 0001901  79.1040 281.0400 15.05650948 25820
STARLINK-34761          
1 64954U 25158Y   26005.16731336  .00008443  00000+0  58861-3 0  9991
2 64954  97.6017 231.4159 0001958  88.2493 271.8958 15.05652294 25794
STARLINK-34732          
1 64955U 25158Z   26005.13408980  .00003376  00000+0  23805-3 0  9995
2 64955  97.6021 231.4617 0002181  86.3246 273.8230 15.05649369 25797
STARLINK-34617          
1 65015U 25161A   26004.99000360  .00031297  00000+0  10646-2 0  9991
2 65015  53.1562 230.3349 0001157  92.8664 267.2470 15.30194563 24476
STARLINK-34627          
1 65016U 25161B   26004.90885712  .00014308  00000+0  49423-3 0  9995
2 65016  53.1567 230.5371 0001269  82.5373 277.5772 15.30201974 25673
STARLINK-34549          
1 65017U 25161C   26005.00149910  .00013801  00000+0  47722-3 0  9998
2 65017  53.1584 229.6897 0001257  83.3108 276.8036 15.30201010 25695
STARLINK-34623          
1 65018U 25161D   26004.99633473  .00023897  00000+0  81650-3 0  9992
2 65018  53.1569 230.3757 0001191  82.4999 277.6137 15.30194181 25576
STARLINK-34232          
1 65019U 25161E   26005.30918637  .00027391  00000+0  93308-3 0  9993
2 65019  53.1572 228.7720 0001048 103.7547 256.3571 15.30214865 25735
STARLINK-34772          
1 65020U 25161F   26004.89725017  .00015465  00000+0  53329-3 0  9994
2 65020  53.1578 230.4650 0001287  79.9302 280.1844 15.30193343 25671
STARLINK-34778          
1 65021U 25161G   26004.99211267  .00011693  00000+0  40634-3 0  9997
2 65021  53.1562 230.3471 0000986 114.7731 245.3373 15.30196344 25566
