[{"OBJECT_NAME":"STARLINK-34747","OBJECT_ID":"2025-158R","EPOCH":"2026-01-05T05:00:43.814880","MEAN_MOTION":15.05658851,"ECCENTRICITY":0.00033921,"INCLINATION":97.601,"RA_OF_ASC_NODE":231.5146,"ARG_OF_PERICENTER":88.4276,"MEAN_ANOMALY":271.734,"EPHEMERIS_TYPE":0,"CLASSIFICATION_TYPE":"U","NORAD_CAT_ID":64947,"ELEMENT_SET_NO":999,"REV_AT_EPOCH":2580,"BSTAR":-1.1766887e-5,"MEAN_MOTION_DOT":-2.31e-6,"MEAN_MOTION_DDOT":0},{"OBJECT_NAME":"STARLINK-34630","OBJECT_ID":"2025-158S","EPOCH":"2026-01-05T04:16:53.599296","MEAN_MOTION":15.0565534,"ECCENTRICITY":0.00016847,"INCLINATION":97.6013,"RA_OF_ASC_NODE":231.5543,"ARG_OF_PERICENTER":74.896,"MEAN_ANOMALY":285.2453,"EPHEMERIS_TYPE":0,"CLASSIFICATION_TYPE":"U","NORAD_CAT_ID":64948,"ELEMENT_SET_NO":999,"REV_AT_EPOCH":2580,"BSTAR":0.00078236759,"MEAN_MOTION_DOT":0.00011248,"MEAN_MOTION_DDOT":0},{"OBJECT_NAME":"STARLINK-34689","OBJECT_ID":"2025-158T","EPOCH":"2026-01-05T03:56:56.519520","MEAN_MOTION":15.05651765,"ECCENTRICITY":0.00018594,"INCLINATION":97.6021,"RA_OF_ASC_NODE":231.4182,"ARG_OF_PERICENTER":81.8252,"MEAN_ANOMALY":278.3185,"EPHEMERIS_TYPE":0,"CLASSIFICATION_TYPE":"U","NORAD_CAT_ID":64949,"ELEMENT_SET_NO":999,"REV_AT_EPOCH":2579,"BSTAR":0.0005003754,"MEAN_MOTION_DOT":7.167e-5,"MEAN_MOTION_DDOT":0},{"OBJECT_NAME":"STARLINK-34586","OBJECT_ID":"2025-158U","EPOCH":"2026-01-05T03:41:00.663360","MEAN_MOTION":15.05632771,"ECCENTRICITY":0.00021532,"INCLINATION":97.6028,"RA_OF_ASC_NODE":231.4349,"ARG_OF_PERICENTER":99.6917,"MEAN_ANOMALY":260.4553,"EPHEMERIS_TYPE":0,"CLASSIFICATION_TYPE":"U","NORAD_CAT_ID":64950,"ELEMENT_SET_NO":999,"REV_AT_EPOCH":2579,"BSTAR":0.0002126206,"MEAN_MOTION_DOT":3.007e-5,"MEAN_MOTION_DDOT":0},{"OBJECT_NAME":"STARLINK-34738","OBJECT_ID":"2025-158V","EPOCH":"2026-01-05T04:28:49.914912","MEAN_MOTION":15.05686974,"ECCENTRICITY":0.00021357,"INCLINATION":97.6013,"RA_OF_ASC_NODE":231.5449,"ARG_OF_PERICENTER":81.9977,"MEAN_ANOMALY":278.1492,"EPHEMERIS_TYPE":0,"CLASSIFICATION_TYPE":"U","NORAD_CAT_ID":64951,"ELEMENT_SET_NO":999,"REV_AT_EPOCH":2580,"BSTAR":0.0012061299,"MEAN_MOTION_DOT":0.00017403,"MEAN_MOTION_DDOT":0},{"OBJECT_NAME":"STARLINK-34744","OBJECT_ID":"2025-158W","EPOCH":"2026-01-05T04:04:54.789312","MEAN_MOTION":15.05654001,"ECCENTRICITY":0.00019272,"INCLINATION":97.6013,"RA_OF_ASC_NODE":231.4044,"ARG_OF_PERICENTER":81.8281,"MEAN_ANOMALY":278.3164,"EPHEMERIS_TYPE":0,"CLASSIFICATION_TYPE":"U","NORAD_CAT_ID":64952,"ELEMENT_SET_NO":999,"REV_AT_EPOCH":2579,"BSTAR":0.00055433685,"MEAN_MOTION_DOT":7.948e-5,"MEAN_MOTION_DDOT":0},{"OBJECT_NAME":"STARLINK-34701","OBJECT_ID":"2025-158X","EPOCH":"2026-01-05T07:32:16.820448","MEAN_MOTION":15.05650948,"ECCENTRICITY":0.00019012,"INCLINATION":97.6013,"RA_OF_ASC_NODE":231.6817,"ARG_OF_PERICENTER":79.104,"MEAN_ANOMALY":281.04,"EPHEMERIS_TYPE":0,"CLASSIFICATION_TYPE":"U","NORAD_CAT_ID":64953,"ELEMENT_SET_NO":999,"REV_AT_EPOCH":2582,"BSTAR":0.00026019148,"MEAN_MOTION_DOT":3.696e-5,"MEAN_MOTION_DDOT":0},{"OBJECT_NAME":"STARLINK-34761","OBJECT_ID":"2025-158Y","EPOCH":"2026-01-05T04:00:55.874304","MEAN_MOTION":15.05652294,"ECCENTRICITY":0.00019581,"INCLINATION":97.6017,"RA_OF_ASC_NODE":231.4159,"ARG_OF_PERICENTER":88.2493,"MEAN_ANOMALY":271.8958,"EPHEMERIS_TYPE":0,"CLASSIFICATION_TYPE":"U","NORAD_CAT_ID":64954,"ELEMENT_SET_NO":999,"REV_AT_EPOCH":2579,"BSTAR":0.00058860605,"MEAN_MOTION_DOT":8.443e-5,"MEAN_MOTION_DDOT":0},{"OBJECT_NAME":"STARLINK-34732","OBJECT_ID":"2025-158Z","EPOCH":"2026-01-05T03:13:05.358720","MEAN_MOTION":15.05649369,"ECCENTRICITY":0.00021819,"INCLINATION":97.6021,"RA_OF_ASC_NODE":231.4617,"ARG_OF_PERICENTER":86.3246,"MEAN_ANOMALY":273.823,"EPHEMERIS_TYPE":0,"CLASSIFICATION_TYPE":"U","NORAD_CAT_ID":64955,"ELEMENT_SET_NO":999,"REV_AT_EPOCH":2579,"BSTAR":0.00023804755,"MEAN_MOTION_DOT":3.376e-5,"MEAN_MOTION_DDOT":0},{"OBJECT_NAME":"STARLINK-34617","OBJECT_ID":"2025-161A","EPOCH":"2026-01-04T23:45:36.311040","MEAN_MOTION":15.30194563,"ECCENTRICITY":0.00011571,"INCLINATION":53.1562,"RA_OF_ASC_NODE":230.3349,"ARG_OF_PERICENTER":92.8664,"MEAN_ANOMALY":267.247,"EPHEMERIS_TYPE":0,"CLASSIFICATION_TYPE":"U","NORAD_CAT_ID":65015,"ELEMENT_SET_NO":999,"REV_AT_EPOCH":2447,"BSTAR":0.0010645532,"MEAN_MOTION_DOT":0.00031297,"MEAN_MOTION_DDOT":0},{"OBJECT_NAME":"STARLINK-34627","OBJECT_ID":"2025-161B","EPOCH":"2026-01-04T21:48:45.255168","MEAN_MOTION":15.30201974,"ECCENTRICITY":0.00012697,"INCLINATION":53.1567,"RA_OF_ASC_NODE":230.5371,"ARG_OF_PERICENTER":82.5373,"MEAN_ANOMALY":277.5772,"EPHEMERIS_TYPE":0,"CLASSIFICATION_TYPE":"U","NORAD_CAT_ID":65016,"ELEMENT_SET_NO":999,"REV_AT_EPOCH":2567,"BSTAR":0.0004942289,"MEAN_MOTION_DOT":0.00014308,"MEAN_MOTION_DDOT":0},{"OBJECT_NAME":"STARLINK-34549","OBJECT_ID":"2025-161C","EPOCH":"2026-01-05T00:02:09.522240","MEAN_MOTION":15.3020101,"ECCENTRICITY":0.00012577,"INCLINATION":53.1584,"RA_OF_ASC_NODE":229.6897,"ARG_OF_PERICENTER":83.3108,"MEAN_ANOMALY":276.8036,"EPHEMERIS_TYPE":0,"CLASSIFICATION_TYPE":"U","NORAD_CAT_ID":65017,"ELEMENT_SET_NO":999,"REV_AT_EPOCH":2569,"BSTAR":0.0004772169,"MEAN_MOTION_DOT":0.00013801,"MEAN_MOTION_DDOT":0},{"OBJECT_NAME":"STARLINK-34623","OBJECT_ID":"2025-161D","EPOCH":"2026-01-04T23:54:43.320672","MEAN_MOTION":15.30194181,"ECCENTRICITY":0.00011917,"INCLINATION":53.1569,"RA_OF_ASC_NODE":230.3757,"ARG_OF_PERICENTER":82.4999,"MEAN_ANOMALY":277.6137,"EPHEMERIS_TYPE":0,"CLASSIFICATION_TYPE":"U","NORAD_CAT_ID":65018,"ELEMENT_SET_NO":999,"REV_AT_EPOCH":2557,"BSTAR":0.00081650315,"MEAN_MOTION_DOT":0.00023897,"MEAN_MOTION_DDOT":0},{"OBJECT_NAME":"STARLINK-34232","OBJECT_ID":"2025-161E","EPOCH":"2026-01-05T07:25:13.702368","MEAN_MOTION":15.30214865,"ECCENTRICITY":0.00010483,"INCLINATION":53.1572,"RA_OF_ASC_NODE":228.772,"ARG_OF_PERICENTER":103.7547,"MEAN_ANOMALY":256.3571,"EPHEMERIS_TYPE":0,"CLASSIFICATION_TYPE":"U","NORAD_CAT_ID":65019,"ELEMENT_SET_NO":999,"REV_AT_EPOCH":2573,"BSTAR":0.00093308393,"MEAN_MOTION_DOT":0.00027391,"MEAN_MOTION_DDOT":0},{"OBJECT_NAME":"STARLINK-34772","OBJECT_ID":"2025-161F","EPOCH":"2026-01-04T21:32:02.414688","MEAN_MOTION":15.30193343,"ECCENTRICITY":0.00012876,"INCLINATION":53.1578,"RA_OF_ASC_NODE":230.465,"ARG_OF_PERICENTER":79.9302,"MEAN_ANOMALY":280.1844,"EPHEMERIS_TYPE":0,"CLASSIFICATION_TYPE":"U","NORAD_CAT_ID":65020,"ELEMENT_SET_NO":999,"REV_AT_EPOCH":2567,"BSTAR":0.00053328638,"MEAN_MOTION_DOT":0.00015465,"MEAN_MOTION_DDOT":0},{"OBJECT_NAME":"STARLINK-34778","OBJECT_ID":"2025-161G","EPOCH":"2026-01-04T23:48:38.534688","MEAN_MOTION":15.30196344,"ECCENTRICITY":9.863e-5,"INCLINATION":53.1562,"RA_OF_ASC_NODE":230.3471,"ARG_OF_PERICENTER":114.7731,"MEAN_ANOMALY":245.3373,"EPHEMERIS_TYPE":0,"CLASSIFICATION_TYPE":"U","NORAD_CAT_ID":65021,"ELEMENT_SET_NO":999,"REV_AT_EPOCH":2556,"BSTAR":0.00040633757,"MEAN_MOTION_DOT":0.00011693,"MEAN_MOTION_DDOT":0}]
